0 FENGYUN 1C DEB
1 38493U 99025ESC 13282.37227115  .00000228  00000-0  19425-3 0   410
2 38493 099.0338 131.2897 0443430 226.7779 130.0073 13.58526947219129
0 FENGYUN 1C DEB
1 38493U 99025ESC 13292.38868317  .00000281  00000-0  22766-3 0   429
2 38493 099.0489 140.5135 0448165 201.0872 157.2552 13.58534089220484
0 FENGYUN 1C DEB
1 38493U 99025ESC 13294.37723381  .00000354  00000-0  28207-3 0   439
2 38493 099.0372 142.3622 0444956 195.9471 162.6887 13.58536545220756
